KUIPER-00115            
1 65152U 25171W   26065.62760426  .00004768  00000+0  65377-3 0  9992
2 65152  51.9008 181.6266 0001271  48.6301 311.4771 14.79950936 32290
KUIPER-00116            
1 65153U 25171X   26064.64315931  .00007202  00000+0  97273-3 0  9997
2 65153  51.8999 191.0223 0001073 131.9516 228.1538 14.79931574 32079
KUIPER-00118            
1 65154U 25171Y   26065.38301254  .00005976  00000+0  81036-3 0  9999
2 65154  51.8993 190.2038 0000566  77.5930 282.5095 14.80029062 32153
KUIPER-00119            
1 65155U 25171Z   26065.32918543  .00006271  00000+0  84952-3 0  9998
2 65155  51.9008 178.0294 0001051 141.8268 218.2769 14.79999385 32313
KUIPER-00120            
1 65762U 25217A   26065.43091973 -.00007234  00000+0 -92034-3 0  9996
2 65762  51.9003  67.4805 0000615  62.6141 297.4884 14.79960839 24259
KUIPER-00132            
1 65763U 25217B   26065.56770026  .00045378  00000+0  11355-2 0  9999
2 65763  51.8614  18.6540 0006205 324.6418  35.4158 15.39633151 24941
KUIPER-00133            
1 65764U 25217C   26065.39716405  .00001645  00000+0  24485-3 0  9990
2 65764  51.9035  67.6743 0001734  25.2136 334.8911 14.79930821 24256
KUIPER-00139            
1 65765U 25217D   26065.38185226  .00009548  00000+0  74306-3 0  9998
2 65765  51.8857  48.9424 0007131 308.9520  51.0815 15.01823781 24513
KUIPER-00142            
1 65766U 25217E   26065.31485127  .00001238  00000+0  19144-3 0  9992
2 65766  51.9000  50.5138 0000544  88.7810 271.3215 14.79921864 24484
KUIPER-00145            
1 65767U 25217F   26065.37955811  .00005449  00000+0  74278-3 0  9998
2 65767  51.9000  52.7403 0000842  81.2176 278.8882 14.79953597 24455
KUIPER-00147            
1 65768U 25217G   26065.41071462 -.00000070  00000+0  19798-4 0  9998
2 65768  51.8982  55.0983 0000832  73.5219 286.5835 14.79941134 24429
KUIPER-00148            
1 65769U 25217H   26065.62704977  .00012512  00000+0  78590-3 0  9993
2 65769  51.8795  38.8459 0008311 344.6476  15.4246 15.09578066 24672
KUIPER-00150            
1 65770U 25217J   26065.39968398  .00005194  00000+0  70838-3 0  9993
2 65770  51.9008  65.1512 0000773  49.8298 310.2732 14.80017336 24284
KUIPER-00151            
1 65771U 25217K   26065.40799485 -.00000518  00000+0 -38953-4 0  9995
2 65771  51.9016  57.6126 0001082  63.7897 296.3177 14.79939808 24399
KUIPER-00152            
1 65772U 25217L   26065.32017074  .00001596  00000+0  23823-3 0  9998
2 65772  51.9009  45.4933 0000736 129.9507 230.1520 14.79947019 24550
KUIPER-00153            
1 65773U 25217M   26065.62676898  .00000353  00000+0  36660-4 0  9991
2 65773  51.8787  41.7991 0010133 315.8375  44.1791 15.13149431 24630
KUIPER-00155            
1 65774U 25217N   26065.31848300  .00018807  00000+0  80039-3 0  9998
2 65774  51.8792  27.4644 0005878 305.4463  54.5969 15.23011995 24801
